<?xml version="1.0" encoding="UTF-8"?>
<ndm xmlns:xsi="http://www.w3.org/2001/XMLSchema-instance" xsi:noNamespaceSchemaLocation="https://sanaregistry.org/r/ndmxml_unqualified/ndmxml-2.0.0-master-2.0.xsd">
<omm id="CCSDS_OMM_VERS" version="2.0">
<header><CREATION_DATE/><ORIGINATOR/></header><body><segment><metadata><OBJECT_NAME>ONEWEB-0233</OBJECT_NAME><OBJECT_ID>2021-045AE</OBJECT_ID><CENTER_NAME>EARTH</CENTER_NAME><REF_FRAME>TEME</REF_FRAME><TIME_SYSTEM>UTC</TIME_SYSTEM><MEAN_ELEMENT_THEORY>SGP4</MEAN_ELEMENT_THEORY></metadata><data><meanElements><EPOCH>2025-02-24T18:13:57.025920</EPOCH><MEAN_MOTION>13.15714791</MEAN_MOTION><ECCENTRICITY>.0002127</ECCENTRICITY><INCLINATION>87.9133</INCLINATION><RA_OF_ASC_NODE>354.3317</RA_OF_ASC_NODE><ARG_OF_PERICENTER>82.4584</ARG_OF_PERICENTER><MEAN_ANOMALY>277.6787</MEAN_ANOMALY></meanElements><tleParameters><EPHEMERIS_TYPE>0</EPHEMERIS_TYPE><CLASSIFICATION_TYPE>U</CLASSIFICATION_TYPE><NORAD_CAT_ID>48795</NORAD_CAT_ID><ELEMENT_SET_NO>999</ELEMENT_SET_NO><REV_AT_EPOCH>18263</REV_AT_EPOCH><BSTAR>.36002E-1</BSTAR><MEAN_MOTION_DOT>.1362E-3</MEAN_MOTION_DOT><MEAN_MOTION_DDOT>0</MEAN_MOTION_DDOT></tleParameters></data></segment></body></omm>
<omm id="CCSDS_OMM_VERS" version="2.0">
<header><CREATION_DATE/><ORIGINATOR/></header><body><segment><metadata><OBJECT_NAME>ONEWEB-0190</OBJECT_NAME><OBJECT_ID>2021-045AF</OBJECT_ID><CENTER_NAME>EARTH</CENTER_NAME><REF_FRAME>TEME</REF_FRAME><TIME_SYSTEM>UTC</TIME_SYSTEM><MEAN_ELEMENT_THEORY>SGP4</MEAN_ELEMENT_THEORY></metadata><data><meanElements><EPOCH>2025-02-24T12:26:27.487680</EPOCH><MEAN_MOTION>13.15551491</MEAN_MOTION><ECCENTRICITY>.0002657</ECCENTRICITY><INCLINATION>87.9136</INCLINATION><RA_OF_ASC_NODE>354.3419</RA_OF_ASC_NODE><ARG_OF_PERICENTER>88.8992</ARG_OF_PERICENTER><MEAN_ANOMALY>271.2443</MEAN_ANOMALY></meanElements><tleParameters><EPHEMERIS_TYPE>0</EPHEMERIS_TYPE><CLASSIFICATION_TYPE>U</CLASSIFICATION_TYPE><NORAD_CAT_ID>48796</NORAD_CAT_ID><ELEMENT_SET_NO>999</ELEMENT_SET_NO><REV_AT_EPOCH>18156</REV_AT_EPOCH><BSTAR>.36292E-3</BSTAR><MEAN_MOTION_DOT>.149E-5</MEAN_MOTION_DOT><MEAN_MOTION_DDOT>0</MEAN_MOTION_DDOT></tleParameters></data></segment></body></omm>
<omm id="CCSDS_OMM_VERS" version="2.0">
<header><CREATION_DATE/><ORIGINATOR/></header><body><segment><metadata><OBJECT_NAME>ONEWEB-0236</OBJECT_NAME><OBJECT_ID>2021-045AG</OBJECT_ID><CENTER_NAME>EARTH</CENTER_NAME><REF_FRAME>TEME</REF_FRAME><TIME_SYSTEM>UTC</TIME_SYSTEM><MEAN_ELEMENT_THEORY>SGP4</MEAN_ELEMENT_THEORY></metadata><data><meanElements><EPOCH>2025-02-24T12:51:33.181344</EPOCH><MEAN_MOTION>13.15551711</MEAN_MOTION><ECCENTRICITY>.0001948</ECCENTRICITY><INCLINATION>87.9140</INCLINATION><RA_OF_ASC_NODE>354.3415</RA_OF_ASC_NODE><ARG_OF_PERICENTER>78.1586</ARG_OF_PERICENTER><MEAN_ANOMALY>281.9762</MEAN_ANOMALY></meanElements><tleParameters><EPHEMERIS_TYPE>0</EPHEMERIS_TYPE><CLASSIFICATION_TYPE>U</CLASSIFICATION_TYPE><NORAD_CAT_ID>48797</NORAD_CAT_ID><ELEMENT_SET_NO>999</ELEMENT_SET_NO><REV_AT_EPOCH>18145</REV_AT_EPOCH><BSTAR>-.46631E-5</BSTAR><MEAN_MOTION_DOT>.11E-6</MEAN_MOTION_DOT><MEAN_MOTION_DDOT>0</MEAN_MOTION_DDOT></tleParameters></data></segment></body></omm>
<omm id="CCSDS_OMM_VERS" version="2.0">
<header><CREATION_DATE/><ORIGINATOR/></header><body><segment><metadata><OBJECT_NAME>ONEWEB-0248</OBJECT_NAME><OBJECT_ID>2021-045AH</OBJECT_ID><CENTER_NAME>EARTH</CENTER_NAME><REF_FRAME>TEME</REF_FRAME><TIME_SYSTEM>UTC</TIME_SYSTEM><MEAN_ELEMENT_THEORY>SGP4</MEAN_ELEMENT_THEORY></metadata><data><meanElements><EPOCH>2025-02-24T13:09:49.709664</EPOCH><MEAN_MOTION>13.15547027</MEAN_MOTION><ECCENTRICITY>.0002603</ECCENTRICITY><INCLINATION>87.9130</INCLINATION><RA_OF_ASC_NODE>354.3077</RA_OF_ASC_NODE><ARG_OF_PERICENTER>76.8743</ARG_OF_PERICENTER><MEAN_ANOMALY>283.2678</MEAN_ANOMALY></meanElements><tleParameters><EPHEMERIS_TYPE>0</EPHEMERIS_TYPE><CLASSIFICATION_TYPE>U</CLASSIFICATION_TYPE><NORAD_CAT_ID>48798</NORAD_CAT_ID><ELEMENT_SET_NO>999</ELEMENT_SET_NO><REV_AT_EPOCH>18161</REV_AT_EPOCH><BSTAR>-.3311E-3</BSTAR><MEAN_MOTION_DOT>-.112E-5</MEAN_MOTION_DOT><MEAN_MOTION_DDOT>0</MEAN_MOTION_DDOT></tleParameters></data></segment></body></omm>
<omm id="CCSDS_OMM_VERS" version="2.0">
<header><CREATION_DATE/><ORIGINATOR/></header><body><segment><metadata><OBJECT_NAME>ONEWEB-0225</OBJECT_NAME><OBJECT_ID>2021-045AJ</OBJECT_ID><CENTER_NAME>EARTH</CENTER_NAME><REF_FRAME>TEME</REF_FRAME><TIME_SYSTEM>UTC</TIME_SYSTEM><MEAN_ELEMENT_THEORY>SGP4</MEAN_ELEMENT_THEORY></metadata><data><meanElements><EPOCH>2025-02-24T13:41:46.575744</EPOCH><MEAN_MOTION>13.15549263</MEAN_MOTION><ECCENTRICITY>.0002218</ECCENTRICITY><INCLINATION>87.9135</INCLINATION><RA_OF_ASC_NODE>354.3274</RA_OF_ASC_NODE><ARG_OF_PERICENTER>82.6130</ARG_OF_PERICENTER><MEAN_ANOMALY>277.5252</MEAN_ANOMALY></meanElements><tleParameters><EPHEMERIS_TYPE>0</EPHEMERIS_TYPE><CLASSIFICATION_TYPE>U</CLASSIFICATION_TYPE><NORAD_CAT_ID>48799</NORAD_CAT_ID><ELEMENT_SET_NO>999</ELEMENT_SET_NO><REV_AT_EPOCH>18162</REV_AT_EPOCH><BSTAR>.91582E-4</BSTAR><MEAN_MOTION_DOT>.47E-6</MEAN_MOTION_DOT><MEAN_MOTION_DDOT>0</MEAN_MOTION_DDOT></tleParameters></data></segment></body></omm>
<omm id="CCSDS_OMM_VERS" version="2.0">
<header><CREATION_DATE/><ORIGINATOR/></header><body><segment><metadata><OBJECT_NAME>ONEWEB-0215</OBJECT_NAME><OBJECT_ID>2021-045AK</OBJECT_ID><CENTER_NAME>EARTH</CENTER_NAME><REF_FRAME>TEME</REF_FRAME><TIME_SYSTEM>UTC</TIME_SYSTEM><MEAN_ELEMENT_THEORY>SGP4</MEAN_ELEMENT_THEORY></metadata><data><meanElements><EPOCH>2025-02-24T12:58:25.286880</EPOCH><MEAN_MOTION>13.15547875</MEAN_MOTION><ECCENTRICITY>.0002602</ECCENTRICITY><INCLINATION>87.9130</INCLINATION><RA_OF_ASC_NODE>354.2929</RA_OF_ASC_NODE><ARG_OF_PERICENTER>81.1852</ARG_OF_PERICENTER><MEAN_ANOMALY>278.9573</MEAN_ANOMALY></meanElements><tleParameters><EPHEMERIS_TYPE>0</EPHEMERIS_TYPE><CLASSIFICATION_TYPE>U</CLASSIFICATION_TYPE><NORAD_CAT_ID>48800</NORAD_CAT_ID><ELEMENT_SET_NO>999</ELEMENT_SET_NO><REV_AT_EPOCH>18149</REV_AT_EPOCH><BSTAR>-.17277E-3</BSTAR><MEAN_MOTION_DOT>-.52E-6</MEAN_MOTION_DOT><MEAN_MOTION_DDOT>0</MEAN_MOTION_DDOT></tleParameters></data></segment></body></omm>
<omm id="CCSDS_OMM_VERS" version="2.0">
<header><CREATION_DATE/><ORIGINATOR/></header><body><segment><metadata><OBJECT_NAME>ONEWEB-0216</OBJECT_NAME><OBJECT_ID>2021-045AL</OBJECT_ID><CENTER_NAME>EARTH</CENTER_NAME><REF_FRAME>TEME</REF_FRAME><TIME_SYSTEM>UTC</TIME_SYSTEM><MEAN_ELEMENT_THEORY>SGP4</MEAN_ELEMENT_THEORY></metadata><data><meanElements><EPOCH>2025-02-24T07:43:32.774304</EPOCH><MEAN_MOTION>13.15548704</MEAN_MOTION><ECCENTRICITY>.0001818</ECCENTRICITY><INCLINATION>87.9128</INCLINATION><RA_OF_ASC_NODE>354.3804</RA_OF_ASC_NODE><ARG_OF_PERICENTER>87.5763</ARG_OF_PERICENTER><MEAN_ANOMALY>272.5575</MEAN_ANOMALY></meanElements><tleParameters><EPHEMERIS_TYPE>0</EPHEMERIS_TYPE><CLASSIFICATION_TYPE>U</CLASSIFICATION_TYPE><NORAD_CAT_ID>48801</NORAD_CAT_ID><ELEMENT_SET_NO>999</ELEMENT_SET_NO><REV_AT_EPOCH>18147</REV_AT_EPOCH><BSTAR>.2867E-4</BSTAR><MEAN_MOTION_DOT>.24E-6</MEAN_MOTION_DOT><MEAN_MOTION_DDOT>0</MEAN_MOTION_DDOT></tleParameters></data></segment></body></omm>
<omm id="CCSDS_OMM_VERS" version="2.0">
<header><CREATION_DATE/><ORIGINATOR/></header><body><segment><metadata><OBJECT_NAME>ONEWEB-0239</OBJECT_NAME><OBJECT_ID>2021-045AM</OBJECT_ID><CENTER_NAME>EARTH</CENTER_NAME><REF_FRAME>TEME</REF_FRAME><TIME_SYSTEM>UTC</TIME_SYSTEM><MEAN_ELEMENT_THEORY>SGP4</MEAN_ELEMENT_THEORY></metadata><data><meanElements><EPOCH>2025-02-24T18:47:31.822944</EPOCH><MEAN_MOTION>13.15549031</MEAN_MOTION><ECCENTRICITY>.0002729</ECCENTRICITY><INCLINATION>87.9139</INCLINATION><RA_OF_ASC_NODE>354.2870</RA_OF_ASC_NODE><ARG_OF_PERICENTER>76.0023</ARG_OF_PERICENTER><MEAN_ANOMALY>284.1410</MEAN_ANOMALY></meanElements><tleParameters><EPHEMERIS_TYPE>0</EPHEMERIS_TYPE><CLASSIFICATION_TYPE>U</CLASSIFICATION_TYPE><NORAD_CAT_ID>48802</NORAD_CAT_ID><ELEMENT_SET_NO>999</ELEMENT_SET_NO><REV_AT_EPOCH>18271</REV_AT_EPOCH><BSTAR>-.18711E-3</BSTAR><MEAN_MOTION_DOT>-.58E-6</MEAN_MOTION_DOT><MEAN_MOTION_DDOT>0</MEAN_MOTION_DDOT></tleParameters></data></segment></body></omm>

</ndm>
