48795,ONEWEB-0233,2021,109.45,148.0,+,87.91,Active,1,LEO,Russia,UK,Commercial,Communications,Soyuz,1 48795U 21045AE  25055.75968780  .00013620  00000+0  36002-1 0  9995,2 48795  87.9133 354.3317 0002127  82.4584 277.6787 13.15714791182638,13.15714791,0.0002127,LEO
48796,ONEWEB-0190,2021,109.46,148.0,+,87.91,Active,1,LEO,Russia,UK,Commercial,Communications,Soyuz,1 48796U 21045AF  25055.51837370  .00000149  00000+0  36292-3 0  9995,2 48796  87.9136 354.3419 0002657  88.8992 271.2443 13.15551491181562,13.15551491,0.0002657,LEO
48797,ONEWEB-0236,2021,109.46,148.0,+,87.91,Active,1,LEO,Russia,UK,Commercial,Communications,Soyuz,1 48797U 21045AG  25055.53580071  .00000011  00000+0 -46631-5 0  9990,2 48797  87.9140 354.3415 0001948  78.1586 281.9762 13.15551711181452,13.15551711,0.0001948,LEO
48798,ONEWEB-0248,2021,109.46,148.0,+,87.91,Active,1,LEO,Russia,UK,Commercial,Communications,Soyuz,1 48798U 21045AH  25055.54849201 -.00000112  00000+0 -33110-3 0  9994,2 48798  87.9130 354.3077 0002603  76.8743 283.2678 13.15547027181619,13.15547027,0.0002603,LEO
48799,ONEWEB-0225,2021,109.46,148.0,+,87.91,Active,1,LEO,Russia,UK,Commercial,Communications,Soyuz,1 48799U 21045AJ  25055.57067796  .00000047  00000+0  91582-4 0  9992,2 48799  87.9135 354.3274 0002218  82.6130 277.5252 13.15549263181620,13.15549263,0.0002218,LEO
48800,ONEWEB-0215,2021,109.46,148.0,+,87.91,Active,1,LEO,Russia,UK,Commercial,Communications,Soyuz,1 48800U 21045AK  25055.54057045 -.00000052  00000+0 -17277-3 0  9994,2 48800  87.9130 354.2929 0002602  81.1852 278.9573 13.15547875181499,13.15547875,0.0002602,LEO
48801,ONEWEB-0216,2021,109.46,148.0,+,87.91,Active,1,LEO,Russia,UK,Commercial,Communications,Soyuz,1 48801U 21045AL  25055.32190711  .00000024  00000+0  28670-4 0  9996,2 48801  87.9128 354.3804 0001818  87.5763 272.5575 13.15548704181471,13.15548704,0.0001818,LEO
48802,ONEWEB-0239,2021,109.46,148.0,+,87.91,Active,1,LEO,Russia,UK,Commercial,Communications,Soyuz,1 48802U 21045AM  25055.78300721 -.00000058  00000+0 -18711-3 0  9994,2 48802  87.9139 354.2870 0002729  76.0023 284.1410 13.15549031182719,13.15549031,0.0002729,LEO
